[  
   {  
      "id":52,
      "name":"샘플28",
      "description":"28샘플만이 사랑입니다♥ 버럭쟁이 봉식이와 변덕쟁이 필례의 좌충우돌 인생STORY!!!",
      "fileId":null,
      "saveFileName":"http://ticketimage.interpark.com/Play/image/large/17/17015476_p.gif",
      "placeName":"강남역"
   },
   {  
      "id":51,
      "name":"샘플27",
      "description":"27샘플만이 사랑입니다♥ 버럭쟁이 봉식이와 변덕쟁이 필례의 좌충우돌 인생STORY!!!",
      "fileId":null,
      "saveFileName":"https://www.doosanartcenter.com/upload/contentsImage/17090113254479272700.png",
      "placeName":"아트센터"
   },
   {  
      "id":50,
      "name":"샘플26",
      "description":"26샘플만이 사랑입니다♥ 버럭쟁이 봉식이와 변덕쟁이 필례의 좌충우돌 인생STORY!!!",
      "fileId":null,
      "saveFileName":"https://shopping-phinf.pstatic.net/main_1274353/12743539498.20171117100635.jpg?type=f300",
      "placeName":"공공장소역"
   },
   {  
      "id":49,
      "name":"샘플25",
      "description":"25샘플만이 사랑입니다♥ 버럭쟁이 봉식이와 변덕쟁이 필례의 좌충우돌 인생STORY!!!",
      "fileId":null,
      "saveFileName":"https://ssl.phinf.net/naverbooking/20171203_26/1512269652458bdvqo_JPEG/%B0%C5%B9%CC%BF%A9%C0%CE%C0%C7_%C5%B0%BD%BA_-_%BF%DC%BA%CE_%C7%F6%BC%F6%B8%B72.jpg?type=ff1242_1242",
      "placeName":"아트홀"
   },
   {  
      "id":48,
      "name":"샘플24",
      "description":"24샘플만이 사랑입니다♥ 버럭쟁이 봉식이와 변덕쟁이 필례의 좌충우돌 인생STORY!!!",
      "fileId":2,
      "saveFileName":"https://ssl.phinf.net/naverbooking/20171024_179/1508847077077fndOb_JPEG/hamelt.jpg",
      "placeName":"미래시대"
   },
   {  
      "id":47,
      "name":"샘플23",
      "description":"23샘플만이 사랑입니다♥ 버럭쟁이 봉식이와 변덕쟁이 필례의 좌충우돌 인생STORY!!!",
      "fileId":1,
      "saveFileName":"https://search.pstatic.net/common/?src=https%3A%2F%2Fditto-phinf.pstatic.net%2F20171023_122%2F1508743957036jVMg3_JPEG%2F286c95e164c872760371601a5acd5ec4.jpeg&type=o&size=428x322",
      "placeName":"누가와도좋은곳"
   },
   {  
      "id":46,
      "name":"샘플22",
      "description":"22샘플만이 사랑입니다♥ 버럭쟁이 봉식이와 변덕쟁이 필례의 좌충우돌 인생STORY!!!",
      "fileId":2,
      "saveFileName":"https://shopping-phinf.pstatic.net/main_1277503/12775030764.20171121172030.jpg?type=f300",
      "placeName":"강남역"
   },
   {  
      "id":45,
      "name":"샘플21",
      "description":"21샘플만이 사랑입니다♥ 버럭쟁이 봉식이와 변덕쟁이 필례의 좌충우돌 인생STORY!!!",
      "fileId":1,
      "saveFileName":"https://shopping-phinf.pstatic.net/main_1223561/12235610862.20170911114753.jpg?type=f300",
      "placeName":"서울역 더아트"
   },
   {  
      "id":44,
      "name":"샘플20",
      "description":"20샘플만이 사랑입니다♥ 버럭쟁이 봉식이와 변덕쟁이 필례의 좌충우돌 인생STORY!!!",
      "fileId":2,
      "saveFileName":"https://shopping-phinf.pstatic.net/main_1241347/12413479674.20171009111613.jpg?type=f300",
      "placeName":"크롱만세"
   },
   {  
      "id":43,
      "name":"샘플19",
      "description":"19샘플만이 사랑입니다♥ 버럭쟁이 봉식이와 변덕쟁이 필례의 좌충우돌 인생STORY!!!",
      "fileId":1,
      "saveFileName":"https://shopping-phinf.pstatic.net/main_1283057/12830574782.20171128161726.jpg?type=f300",
      "placeName":"삶의장소어딘가"
   }
]